[{"OBJECT_NAME":"STARLINK-31470","OBJECT_ID":"2024-076F","EPOCH":"2026-03-09T05:48:55.980576","MEAN_MOTION":15.27568468,"ECCENTRICITY":0.00015179,"INCLINATION":43.0015,"RA_OF_ASC_NODE":8.1268,"ARG_OF_PERICENTER":254.4295,"MEAN_ANOMALY":105.639,"EPHEMERIS_TYPE":0,"CLASSIFICATION_TYPE":"U","NORAD_CAT_ID":59569,"ELEMENT_SET_NO":999,"REV_AT_EPOCH":10638,"BSTAR":-0.00012461591,"MEAN_MOTION_DOT":-3.688e-5,"MEAN_MOTION_DDOT":0},{"OBJECT_NAME":"FLOCK 4G-8","OBJECT_ID":"2025-009E","EPOCH":"2026-03-09T17:22:17.546016","MEAN_MOTION":15.27623414,"ECCENTRICITY":0.00030503,"INCLINATION":97.4045,"RA_OF_ASC_NODE":151.2834,"ARG_OF_PERICENTER":315.2538,"MEAN_ANOMALY":44.8455,"EPHEMERIS_TYPE":0,"CLASSIFICATION_TYPE":"U","NORAD_CAT_ID":62613,"ELEMENT_SET_NO":999,"REV_AT_EPOCH":6372,"BSTAR":0.0005043806,"MEAN_MOTION_DOT":0.00013559,"MEAN_MOTION_DDOT":0}]
